NORAD_CAT_ID,OBJECT_NAME,OBJECT_TYPE,EPOCH,MEAN_MOTION,ECCENTRICITY,INCLINATION,RA_OF_ASC_NODE,ARG_OF_PERICENTER,MEAN_ANOMALY,BSTAR,MEAN_MOTION_DOT,MEAN_MOTION_DDOT,TLE_LINE0,TLE_LINE1,TLE_LINE2,SEMIMAJOR_AXIS,PERIOD,APOGEE,PERIGEE,DECAYED
54086.0,STARLINK-5211,PAYLOAD,2022-11-05 22:00:01,15.73153782,0.0002652,53.2156,67.1844,18.7683,83.42200000000003,0.00049754,0.00069656,0.0,0 STARLINK-5211,1 54086U 22136AM  22309.91668981  .00069656  00000-0  49754-3 0  9995,2 54086  53.2156  67.1844 0002652  18.7683  83.4220 15.73153782  1300,6728.026999999999,91.536,351.676,348.108,0.0
54086.0,STARLINK-5211,PAYLOAD,2022-11-06 06:00:00,15.73185225,0.0002422,53.2158,65.5332,20.0613,170.9603,0.00080334,0.00113595,0.0,0 STARLINK-5211,1 54086U 22136AM  22310.25001157  .00113595  00000-0  80334-3 0  9991,2 54086  53.2158  65.5332 0002422  20.0613 170.9603 15.73185225  3115,6727.937,91.534,351.432,348.173,0.0
54086.0,STARLINK-5211,PAYLOAD,2022-11-06 14:00:01,15.73237388,0.0002704,53.2162,63.8856,17.7596,262.2157,-0.00017923,-0.00025744,0.0,0 STARLINK-5211,1 54086U 22136AM  22310.58334491 -.00025744  00000-0 -17923-3 0  9991,2 54086  53.2162  63.8856 0002704  17.7596 262.2157 15.73237388  1304,6727.7890000000025,91.531,351.473,347.834,0.0
54086.0,STARLINK-5211,PAYLOAD,2022-11-07 14:00:01,15.73230668,0.0002941,53.2163,58.9374,16.5373,170.2595,6.4107e-05,8.396e-05,0.0,0 STARLINK-5211,1 54086U 22136AM  22311.58334491  .00008396  00000-0  64107-4 0  9991,2 54086  53.2163  58.9374 0002941  16.5373 170.2595 15.73230668  3320,6727.808000000001,91.531,351.651,347.694,0.0
54086.0,STARLINK-5211,PAYLOAD,2022-11-07 22:00:00,15.73260789,0.0002963,53.2159,57.2874,14.9137,260.8501,-0.00069091,-0.00096757,0.0,0 STARLINK-5211,1 54086U 22136AM  22311.91667824 -.00096757  00000-0 -69091-3 0  9993,2 54086  53.2159  57.2874 0002963  14.9137 260.8501 15.73260789  1302,6727.722,91.53,351.58,347.593,0.0
54086.0,STARLINK-5211,PAYLOAD,2022-11-08 00:00:02,15.73271999,0.0002915,53.2161,56.8744,14.9938,13.1144,-3.0169e-05,-4.869e-05,0.0,0 STARLINK-5211,1 54086U 22136AM  22312.00002315 -.00004869  00000-0 -30169-4 0  9990,2 54086  53.2161  56.8744 0002915  14.9938  13.1144 15.73271999  3390,6727.69,91.529,351.516,347.594,0.0
54086.0,STARLINK-5211,PAYLOAD,2022-11-08 14:00:01,15.73276851,0.0003078,53.2164,53.9888,14.7055,79.1082,0.00022335,0.00030948,0.0,0 STARLINK-5211,1 54086U 22136AM  22312.58334491  .00030948  00000-0  22335-3 0  9996,2 54086  53.2164  53.9888 0003078  14.7055  79.1082 15.73276851  1303,6727.676,91.529,351.612,347.47,0.0
54086.0,STARLINK-5211,PAYLOAD,2022-11-08 22:00:00,15.73370104,0.0003127,53.2166,52.3386,12.345,170.4935,-0.0011819,-0.00164544,0.0,0 STARLINK-5211,1 54086U 22136AM  22312.91667824 -.00164544  00000-0 -11819-2 0  9998,2 54086  53.2166  52.3386 0003127  12.3450 170.4935 15.73370104  3534,6727.41,91.523,351.379,347.172,0.0
54086.0,STARLINK-5211,PAYLOAD,2022-11-09 14:00:01,15.73081087,0.0003283,53.2164,49.0403,9.127,351.7091,0.00022722,0.00031231,0.0,0 STARLINK-5211,1 54086U 22136AM  22313.58334491  .00031231  00000-0  22722-3 0  9993,2 54086  53.2164  49.0403 0003283   9.1270 351.7091 15.73081087  1312,6728.234,91.54,352.30800000000005,347.89,0.0
54086.0,STARLINK-5211,PAYLOAD,2022-11-09 22:00:01,15.73108566,0.0003276999999999,53.2159,47.3902,10.7331,78.9619,-0.00017946,-0.00025641,0.0,0 STARLINK-5211,1 54086U 22136AM  22313.91668981 -.00025641  00000-0 -17946-3 0  9996,2 54086  53.2159  47.3902 0003277  10.7331  78.9619 15.73108566  3699,6728.156,91.539,352.226,347.816,0.0
54086.0,STARLINK-5211,PAYLOAD,2022-11-10 14:00:01,15.73078036,0.0003496,53.2163,44.093,15.1549,252.0769,0.0011075999999999,0.00156969,0.0,0 STARLINK-5211,1 54086U 22136AM  22314.58334491  .00156969  00000-0  11076-2 0  9999,2 54086  53.2163  44.0930 0003496  15.1549 252.0769 15.73078036  1307,6728.243,91.54,352.46,347.756,0.0
54086.0,STARLINK-5211,PAYLOAD,2022-11-10 22:00:00,15.73205633,0.0003402,53.2163,42.4427,11.2128,344.8635,-0.00051922,-0.00072908,0.0,0 STARLINK-5211,1 54086U 22136AM  22314.91667824 -.00072908  00000-0 -51922-3 0  9992,2 54086  53.2163  42.4427 0003402  11.2128 344.8635 15.73205633  3856,6727.879,91.533,352.033,347.455,0.0
54086.0,STARLINK-5211,PAYLOAD,2022-11-11 08:00:01,15.73183389,0.000338,53.2164,40.3805,12.4925,184.6971,0.00031033,0.00043134,0.0,0 STARLINK-5211,1 54086U 22136AM  22315.33334491  .00043134  00000-0  31033-3 0  9998,2 54086  53.2164  40.3805 0003380  12.4925 184.6971 15.73183389  3910,6727.943,91.534,352.082,347.533,0.0
54086.0,STARLINK-5211,PAYLOAD,2022-11-11 14:00:01,15.73195995,0.0003671,53.216,39.1449,12.7001,161.1863,0.000543,0.00076288,0.0,0 STARLINK-5211,1 54086U 22136AM  22315.58334491  .00076288  00000-0  54300-3 0  9993,2 54086  53.2160  39.1449 0003671  12.7001 161.1863 15.73195995  1304,6727.906999999997,91.533,352.241,347.302,0.0
54086.0,STARLINK-5211,PAYLOAD,2022-11-11 22:00:00,15.73306021,0.000359,53.2161,37.4916,12.436,250.4116,-0.00027213,-0.00038828,0.0,0 STARLINK-5211,1 54086U 22136AM  22315.91667824 -.00038828  00000-0 -27213-3 0  9992,2 54086  53.2161  37.4916 0003590  12.4360 250.4116 15.73306021  4007,6727.593000000003,91.527,351.87300000000016,347.043,0.0
54086.0,STARLINK-5211,PAYLOAD,2022-11-12 14:00:01,15.73252727,0.0003686,53.2159,34.196,11.0224,69.8731,-0.00057961,-0.00081404,0.0,0 STARLINK-5211,1 54086U 22136AM  22316.58334491 -.00081404  00000-0 -57961-3 0  9998,2 54086  53.2159  34.1960 0003686  11.0224  69.8731 15.73252727  1305,6727.745,91.53,352.09,347.13,0.0
54086.0,STARLINK-5211,PAYLOAD,2022-11-12 22:00:00,15.73199453,0.0003616,53.216,32.545,6.0739,163.7842,-0.00057875,-0.00081101,0.0,0 STARLINK-5211,1 54086U 22136AM  22316.91667824 -.00081101  00000-0 -57875-3 0  9992,2 54086  53.2160  32.5450 0003616   6.0739 163.7842 15.73199453  4161,6727.897,91.533,352.195,347.329,0.0
54086.0,STARLINK-5211,PAYLOAD,2022-11-13 06:00:02,15.73177803,0.0003517,53.216,30.8949,5.2067,253.5989,1.0429e-05,8.39e-06,0.0,0 STARLINK-5211,1 54086U 22136AM  22317.25002315  .00000839  00000-0  10429-4 0  9990,2 54086  53.2160  30.8949 0003517   5.2067 253.5989 15.73177803  4211,6727.958000000001,91.534,352.19,347.457,0.0
54086.0,STARLINK-5211,PAYLOAD,2022-11-13 14:00:01,15.73133127,0.0003854,53.2156,29.2475,5.0486,342.6042,0.0004437,0.0006195,0.0,0 STARLINK-5211,1 54086U 22136AM  22317.58334491  .00061950  00000-0  44370-3 0  9991,2 54086  53.2156  29.2475 0003854   5.0486 342.6042 15.73133127  1307,6728.0859999999975,91.537,352.5440000000001,347.358,0.0
54086.0,STARLINK-5211,PAYLOAD,2022-11-13 22:00:00,15.73181214,0.0003712,53.2152,27.5965,4.6704,71.85300000000002,0.0002943,0.00040861,0.0,0 STARLINK-5211,1 54086U 22136AM  22317.91667824  .00040861  00000-0  29430-3 0  9995,2 54086  53.2152  27.5965 0003712   4.6704  71.8530 15.73181214  1302,6727.949000000001,91.534,352.311,347.316,0.0
54086.0,STARLINK-5211,PAYLOAD,2022-11-14 14:00:01,15.73181038,0.000405,53.2157,24.2984,9.7737,244.6345,0.00069417,0.00097896,0.0,0 STARLINK-5211,1 54086U 22136AM  22318.58334491  .00097896  00000-0  69417-3 0  9999,2 54086  53.2157  24.2984 0004050   9.7737 244.6345 15.73181038  4424,6727.949000000001,91.534,352.539,347.089,0.0
54086.0,STARLINK-5211,PAYLOAD,2022-11-14 22:00:00,15.73256488,0.0003832,53.2165,22.6448,7.8896,335.468,-0.00037384,-0.00052912,0.0,0 STARLINK-5211,1 54086U 22136AM  22318.91667824 -.00052912  00000-0 -37384-3 0  9995,2 54086  53.2165  22.6448 0003832   7.8896 335.4680 15.73256488  1309,6727.734,91.53,352.177,347.021,0.0
54086.0,STARLINK-5211,PAYLOAD,2022-11-15 02:00:01,15.73216865,0.0003769,53.2161,21.82,6.9129,200.9404,-2.3236e-05,-3.888e-05,0.0,0 STARLINK-5211,1 54086U 22136AM  22319.08334491 -.00003888  00000-0 -23236-4 0  9995,2 54086  53.2161  21.8200 0003769   6.9129 200.9404 15.73216865  4500,6727.847,91.532,352.24800000000016,347.176,0.0
54086.0,STARLINK-5211,PAYLOAD,2022-11-15 14:00:01,15.73171681,0.0004161,53.2154,19.3501,6.3785,154.888,0.00068561,0.0009663,0.0,0 STARLINK-5211,1 54086U 22136AM  22319.58334491  .00096630  00000-0  68561-3 0  9994,2 54086  53.2154  19.3501 0004161   6.3785 154.8880 15.73171681  1303,6727.976,91.535,352.64,347.041,0.0
54086.0,STARLINK-5211,PAYLOAD,2022-11-15 22:00:00,15.73245437,0.0003955,53.2152,17.6988,6.0929,244.1106,-0.00042743,-0.00060329,0.0,0 STARLINK-5211,1 54086U 22136AM  22319.91667824 -.00060329  00000-0 -42743-3 0  9992,2 54086  53.2152  17.6988 0003955   6.0929 244.1106 15.73245437  1303,6727.766,91.531,352.291,346.97,0.0
54086.0,STARLINK-5211,PAYLOAD,2022-11-16 06:00:00,15.73241559,0.0003914,53.2156,16.0482,7.4692,331.6835,-0.00051917,-0.00073022,0.0,0 STARLINK-5211,1 54086U 22136AM  22320.25001157 -.00073022  00000-0 -51917-3 0  9999,2 54086  53.2156  16.0482 0003914   7.4692 331.6835 15.73241559  4693,6727.776999999999,91.531,352.275,347.0080000000001,0.0
54086.0,STARLINK-5211,PAYLOAD,2022-11-16 14:00:01,15.73199225,0.0004164,53.2163,14.399,7.893,60.2711,-2.741300000000001e-05,-4.472e-05,0.0,0 STARLINK-5211,1 54086U 22136AM  22320.58335648 -.00004472  00000-0 -27413-4 0  9998,2 54086  53.2163  14.3990 0004164   7.8930  60.2711 15.73199225  1308,6727.897,91.533,352.564,346.961,0.0
54086.0,STARLINK-5211,PAYLOAD,2022-11-16 20:00:01,15.73179212,0.0003935,53.2169,13.1587,5.2257,39.5763,0.00018688,0.0002566999999999,0.0,0 STARLINK-5211,1 54086U 22136AM  22320.83334491  .00025670  00000-0  18688-3 0  9995,2 54086  53.2169  13.1587 0003935   5.2257  39.5763 15.73179212  4787,6727.954000000002,91.534,352.467,347.172,0.0
54086.0,STARLINK-5211,PAYLOAD,2022-11-16 22:00:08,15.7316883,0.0003859,53.2174,12.7448,4.1618,153.3324,0.00038031,0.00053035,0.0,0 STARLINK-5211,1 54086U 22136AM  22320.91675926  .00053035  00000-0  38031-3 0  9995,2 54086  53.2174  12.7448 0003859   4.1618 153.3324 15.73168830  1305,6727.984,91.535,352.445,347.25300000000016,0.0
